TANSAT                  
1 41898U 16081A   26169.61920193  .00000169  00000+0  45717-4 0  9994
2 41898  98.5358 169.9194 0019510 307.6770  52.2660 14.59951716504834
JILIN-1 03              
1 41914U 17002B   26169.58370506  .00010375  00000+0  24838-3 0  9990
2 41914  97.1947 176.6484 0006965 150.2843 209.8802 15.41604093522071
CARTOSAT-2D             
1 41948U 17008A   26169.60746872  .00004464  00000+0  21519-3 0  9994
2 41948  97.4103 228.8873 0003824 228.5862 131.5044 15.19218097517790
CARTOSAT-2E             
1 42767U 17036C   26169.62527745  .00004698  00000+0  22598-3 0  9990
2 42767  97.4273 229.4044 0002384 313.5778  46.5259 15.19267288498366
IRIDIUM 113             
1 42803U 17039A   26169.42642584  .00000017  00000+0 -95394-6 0  9990
2 42803  86.3967 321.6607 0002161  89.1855 270.9589 14.34217648471360
NORSAT 2                
1 42828U 17042D   26169.47411805  .00008080  00000+0  35687-3 0  9999
2 42828  97.4039 342.8935 0010396  53.3457 306.8733 15.21948429487934
TECHNOSAT               
1 42829U 17042E   26169.37957523  .00002963  00000+0  21235-3 0  9999
2 42829  97.4292 326.9915 0019030  90.4858 269.8549 15.04968515486883
FLYING LAPTOP           
1 42831U 17042G   26169.58533311  .00002760  00000+0  21898-3 0  9990
2 42831  97.4693 325.0638 0019607 117.0555 243.2674 15.01153248486660
WNISAT 1R               
1 42835U 17042L   26169.42452033  .00001781  00000+0  14105-3 0  9993
2 42835  97.4839 325.5022 0011310 143.3168 216.8834 15.01767059486691
LEMUR-2-GREENBERG       
1 42837U 17042N   26169.45925089  .00012937  00000+0  42899-3 0  9990
2 42837  97.3821 350.0774 0008394   9.3280 350.8115 15.31359663488586
LEMUR-2-FURIAUS         
1 42840U 17042R   26169.45393875  .00013947  00000+0  47784-3 0  9996
2 42840  97.3770 348.0240 0008107  65.3345 294.8739 15.30285769488408
CORVUS BC2              
1 42846U 17042X   26169.39059529  .00003135  00000+0  21696-3 0  9992
2 42846  97.4071 330.6930 0014433 106.7137 253.5676 15.06304598487248
CORVUS BC1              
1 42847U 17042Y   26169.51791201  .00002736  00000+0  18905-3 0  9992
2 42847  97.4106 331.6305 0013447  85.2271 275.0492 15.06474492487290
VRSS-2                  
1 42954U 17060A   26169.60575073  .00001350  00000+0  17935-3 0  9991
2 42954  97.6505 207.2690 0018661  94.5787 265.7558 14.81198760468669
MOHAMMED VI-A           
1 43005U 17070A   26169.63350799  .00001017  00000+0  15125-3 0  9998
2 43005  97.9559 241.9449 0001350  72.1442 287.9916 14.77072512464192
FENGYUN 3D              
1 43010U 17072A   26169.62733039  .00000141  00000+0  88264-4 0  9999
2 43010  99.0128 144.0761 0002518  60.3277 299.8149 14.19739733445195
NOAA 20 (JPSS-1)        
1 43013U 17073A   26169.55203449  .00000037  00000+0  38609-4 0  9994
2 43013  98.7770 109.0025 0000308 107.8693 252.2517 14.19511933444668
MAKERSAT 0              
1 43016U 17073D   26169.61677883  .00014158  00000+0  38538-3 0  9990
2 43016  97.4614  52.1465 0105019 267.8006  91.1207 15.32138108466687
RADFXSAT (FOX-1B)       
1 43017U 17073E   26168.60486874  .00005679  00000+0  24962-3 0  9991
2 43017  97.4696  35.8108 0149538 327.7970  31.4193 15.12722439465459
JILIN-1 04              
1 43022U 17074A   26169.57832210  .00010630  00000+0  24746-3 0  9997
2 43022  97.4863 279.2277 0004298 173.7813 186.3488 15.42470141474483
JILIN-1 05              
1 43023U 17074B   26169.55637993  .00006571  00000+0  20286-3 0  9991
2 43023  97.4868 275.7288 0004490 208.6569 151.4427 15.33893823474215
JILIN-1 06              
1 43024U 17074C   26169.59337229  .00004950  00000+0  15433-3 0  9992
2 43024  97.4795 272.7743 0005810 224.6503 135.4272 15.33706273474055
IRIDIUM 116             
1 43072U 17083C   26168.98244360 -.00000006  00000+0 -90295-5 0  9991
2 43072  86.3960 321.6688 0001878  99.6975 260.4433 14.34217536444283
IRIDIUM 130             
1 43073U 17083D   26169.36933838  .00000153  00000+0  47722-4 0  9997
2 43073  86.3973 321.7822 0001946  92.8921 267.2497 14.34219243444283
LKW-2                   
1 43080U 17084A   26169.60190160  .00006302  00000+0  24510-3 0  9997
2 43080  97.1182 209.3321 0001234 171.9153 188.2106 15.26356554471901
SUPERVIEW-1 03          
1 43099U 18002A   26169.59595863  .00014544  00000+0  36068-3 0  9993
2 43099  97.3132 254.4311 0047282 174.5124 185.6650 15.39297281468588
CARTOSAT-2F             
1 43111U 18004A   26169.59162760  .00003945  00000+0  19058-3 0  9999
2 43111  97.4781 229.2132 0000810 198.3203 161.8003 15.19224204467549
LKW-3                   
1 43146U 18006A   26169.61811198  .00007668  00000+0  22638-3 0  9992
2 43146  97.6616 330.2472 0001943 315.9850  44.1237 15.35271248468933
